{
  "type": "FeatureCollection",
  "features": [
    {
      "type": "Feature",
      "properties": {
        "norad_id": 34635,
        "name": "COSMOS 2251 DEB",
        "group": "cosmos-2251-debris",
        "lat": 23.021334040033256,
        "lon": -106.5218852723367,
        "alt_km": 645.7393114249298,
        "timestamp": "2025-12-07T16:44:04.307666+00:00",
        "meta_object_name": "COSMOS 2251 DEB",
        "meta_object_id": "1993-036XG",
        "meta_epoch": "2025-12-06T17:41:13.992000",
        "meta_mean_motion": 14.68131829,
        "meta_eccentricity": 0.00291493,
        "meta_inclination": 74.0461,
        "meta_ra_of_asc_node": 82.3143,
        "meta_arg_of_pericenter": 153.075,
        "meta_mean_anomaly": 329.3755,
        "meta_ephemeris_type": 0,
        "meta_classification_type": "U",
        "meta_norad_cat_id": 34635,
        "meta_element_set_no": 999,
        "meta_rev_at_epoch": 73131,
        "meta_bstar": 0.0024618294,
        "meta_mean_motion_dot": 0.00014242,
        "meta_mean_motion_ddot": 0,
        "tle_line1": "1 34635U 93036XG  25340.73696750  .00014242  00000+0  24618-2 0  9994",
        "tle_line2": "2 34635  74.0461  82.3143 0029149 153.0750 329.3755 14.68131829731314"
      },
      "geometry": {
        "type": "Point",
        "coordinates": [
          -106.5218852723367,
          23.021334040033256
        ]
      }
    },
    {
      "type": "Feature",
      "properties": {
        "norad_id": 34637,
        "name": "COSMOS 2251 DEB",
        "group": "cosmos-2251-debris",
        "lat": 44.290601878537466,
        "lon": -85.42870203734553,
        "alt_km": 665.5951164457765,
        "timestamp": "2025-12-07T16:44:04.307677+00:00",
        "meta_object_name": "COSMOS 2251 DEB",
        "meta_object_id": "1993-036XJ",
        "meta_epoch": "2025-12-06T19:19:00.292800",
        "meta_mean_motion": 14.60004377,
        "meta_eccentricity": 0.00503776,
        "meta_inclination": 74.049,
        "meta_ra_of_asc_node": 112.4735,
        "meta_arg_of_pericenter": 184.4089,
        "meta_mean_anomaly": 300.7701,
        "meta_ephemeris_type": 0,
        "meta_classification_type": "U",
        "meta_norad_cat_id": 34637,
        "meta_element_set_no": 999,
        "meta_rev_at_epoch": 88440,
        "meta_bstar": 0.0019512232,
        "meta_mean_motion_dot": 9.516e-05,
        "meta_mean_motion_ddot": 0,
        "tle_line1": "1 34637U 93036XJ  25340.80486450  .00009516  00000+0  19512-2 0  9993",
        "tle_line2": "2 34637  74.0490 112.4735 0050377 184.4089 300.7701 14.60004377884402"
      },
      "geometry": {
        "type": "Point",
        "coordinates": [
          -85.42870203734553,
          44.290601878537466
        ]
      }
    },
    {
      "type": "Feature",
      "properties": {
        "norad_id": 34641,
        "name": "COSMOS 2251 DEB",
        "group": "cosmos-2251-debris",
        "lat": -73.80631922142435,
        "lon": 4.366143781046768,
        "alt_km": 727.7868058381046,
        "timestamp": "2025-12-07T16:44:04.307688+00:00",
        "meta_object_name": "COSMOS 2251 DEB",
        "meta_object_id": "1993-036XN",
        "meta_epoch": "2025-12-06T18:41:37.764384",
        "meta_mean_motion": 14.51928421,
        "meta_eccentricity": 0.00178091,
        "meta_inclination": 73.8389,
        "meta_ra_of_asc_node": 93.0111,
        "meta_arg_of_pericenter": 9.8292,
        "meta_mean_anomaly": 142.9192,
        "meta_ephemeris_type": 0,
        "meta_classification_type": "U",
        "meta_norad_cat_id": 34641,
        "meta_element_set_no": 999,
        "meta_rev_at_epoch": 88169,
        "meta_bstar": 0.0018537971,
        "meta_mean_motion_dot": 7.472e-05,
        "meta_mean_motion_ddot": 0,
        "tle_line1": "1 34641U 93036XN  25340.77890931  .00007472  00000+0  18538-2 0  9993",
        "tle_line2": "2 34641  73.8389  93.0111 0017809   9.8292 142.9192 14.51928421881695"
      },
      "geometry": {
        "type": "Point",
        "coordinates": [
          4.366143781046768,
          -73.80631922142435
        ]
      }
    },
    {
      "type": "Feature",
      "properties": {
        "norad_id": 34642,
        "name": "COSMOS 2251 DEB",
        "group": "cosmos-2251-debris",
        "lat": -55.543238755624344,
        "lon": -166.7542687635924,
        "alt_km": 848.2565283704353,
        "timestamp": "2025-12-07T16:44:04.307698+00:00",
        "meta_object_name": "COSMOS 2251 DEB",
        "meta_object_id": "1993-036XP",
        "meta_epoch": "2025-12-06T11:09:03.378816",
        "meta_mean_motion": 13.98947796,
        "meta_eccentricity": 0.02077875,
        "meta_inclination": 74.0051,
        "meta_ra_of_asc_node": 350.6706,
        "meta_arg_of_pericenter": 171.9765,
        "meta_mean_anomaly": 339.3192,
        "meta_ephemeris_type": 0,
        "meta_classification_type": "U",
        "meta_norad_cat_id": 34642,
        "meta_element_set_no": 999,
        "meta_rev_at_epoch": 85205,
        "meta_bstar": 0.0018241564,
        "meta_mean_motion_dot": 3.146e-05,
        "meta_mean_motion_ddot": 0,
        "tle_line1": "1 34642U 93036XP  25340.46462244  .00003146  00000+0  18242-2 0  9998",
        "tle_line2": "2 34642  74.0051 350.6706 0207787 171.9765 339.3192 13.98947796852055"
      },
      "geometry": {
        "type": "Point",
        "coordinates": [
          -166.7542687635924,
          -55.543238755624344
        ]
      }
    },
    {
      "type": "Feature",
      "properties": {
        "norad_id": 34671,
        "name": "COSMOS 2251 DEB",
        "group": "cosmos-2251-debris",
        "lat": 68.11205711241821,
        "lon": -81.44864722156757,
        "alt_km": 668.2921092398192,
        "timestamp": "2025-12-07T16:44:04.307709+00:00",
        "meta_object_name": "COSMOS 2251 DEB",
        "meta_object_id": "1993-036XR",
        "meta_epoch": "2025-12-06T17:24:21.536064",
        "meta_mean_motion": 14.66760427,
        "meta_eccentricity": 0.00119294,
        "meta_inclination": 74.0261,
        "meta_ra_of_asc_node": 145.9047,
        "meta_arg_of_pericenter": 225.2226,
        "meta_mean_anomaly": 149.4834,
        "meta_ephemeris_type": 0,
        "meta_classification_type": "U",
        "meta_norad_cat_id": 34671,
        "meta_element_set_no": 999,
        "meta_rev_at_epoch": 88209,
        "meta_bstar": 0.0028036655,
        "meta_mean_motion_dot": 0.0001565,
        "meta_mean_motion_ddot": 0,
        "tle_line1": "1 34671U 93036XR  25340.72524926  .00015650  00000+0  28037-2 0  9991",
        "tle_line2": "2 34671  74.0261 145.9047 0011929 225.2226 149.4834 14.66760427882099"
      },
      "geometry": {
        "type": "Point",
        "coordinates": [
          -81.44864722156757,
          68.11205711241821
        ]
      }
    },
    {
      "type": "Feature",
      "properties": {
        "norad_id": 34672,
        "name": "COSMOS 2251 DEB",
        "group": "cosmos-2251-debris",
        "lat": 58.65393156162153,
        "lon": 106.81931356441135,
        "alt_km": 764.0997866423331,
        "timestamp": "2025-12-07T16:44:04.307719+00:00",
        "meta_object_name": "COSMOS 2251 DEB",
        "meta_object_id": "1993-036XS",
        "meta_epoch": "2025-12-05T16:32:33.080064",
        "meta_mean_motion": 14.36390754,
        "meta_eccentricity": 0.0023475,
        "meta_inclination": 74.0334,
        "meta_ra_of_asc_node": 318.5432,
        "meta_arg_of_pericenter": 32.3823,
        "meta_mean_anomaly": 145.4069,
        "meta_ephemeris_type": 0,
        "meta_classification_type": "U",
        "meta_norad_cat_id": 34672,
        "meta_element_set_no": 999,
        "meta_rev_at_epoch": 65076,
        "meta_bstar": 0.00046522033,
        "meta_mean_motion_dot": 1.341e-05,
        "meta_mean_motion_ddot": 0,
        "tle_line1": "1 34672U 93036XS  25339.68927176  .00001341  00000+0  46522-3 0  9991",
        "tle_line2": "2 34672  74.0334 318.5432 0023475  32.3823 145.4069 14.36390754650768"
      },
      "geometry": {
        "type": "Point",
        "coordinates": [
          106.81931356441135,
          58.65393156162153
        ]
      }
    },
    {
      "type": "Feature",
      "properties": {
        "norad_id": 34678,
        "name": "COSMOS 2251 DEB",
        "group": "cosmos-2251-debris",
        "lat": 51.76842416668297,
        "lon": 36.16440563957802,
        "alt_km": 769.247395957118,
        "timestamp": "2025-12-07T16:44:04.307729+00:00",
        "meta_object_name": "COSMOS 2251 DEB",
        "meta_object_id": "1993-036XY",
        "meta_epoch": "2025-12-06T05:44:44.475360",
        "meta_mean_motion": 14.30063457,
        "meta_eccentricity": 0.00242902,
        "meta_inclination": 74.0381,
        "meta_ra_of_asc_node": 17.5109,
        "meta_arg_of_pericenter": 68.745,
        "meta_mean_anomaly": 43.721,
        "meta_ephemeris_type": 0,
        "meta_classification_type": "U",
        "meta_norad_cat_id": 34678,
        "meta_element_set_no": 999,
        "meta_rev_at_epoch": 87286,
        "meta_bstar": 5.5847252e-05,
        "meta_mean_motion_dot": 1.19e-06,
        "meta_mean_motion_ddot": 0,
        "tle_line1": "1 34678U 93036XY  25340.23940365  .00000119  00000+0  55847-4 0  9998",
        "tle_line2": "2 34678  74.0381  17.5109 0024290  68.7450  43.7210 14.30063457872864"
      },
      "geometry": {
        "type": "Point",
        "coordinates": [
          36.16440563957802,
          51.76842416668297
        ]
      }
    }
  ]
}